STARLINK-11602 [DTC]    
1 63183U 25048A   26154.05628367  .00176079  00000+0  13460-2 0  9990
2 63183  43.0007 165.6497 0002399 317.4763  42.5918 15.70854431 71565
STARLINK-11617 [DTC]    
1 63184U 25048B   26155.13188256  .00044426  00000+0  34837-3 0  9991
2 63184  42.9992 159.0885 0001919 212.0638 148.0113 15.70804515 72112
STARLINK-11618 [DTC]    
1 63185U 25048C   26155.48154011  .00337543  00000+0  24925-2 0  9993
2 63185  42.9975 156.5389 0002454 320.6789  39.3900 15.71182857 72163
STARLINK-11646 [DTC]    
1 63186U 25048D   26155.47092089  .00217055  00000+0  16358-2 0  9995
2 63186  42.9966 156.4585 0002495 319.7824  40.2859 15.71062746 72174
STARLINK-11622 [DTC]    
1 63187U 25048E   26155.46042940  .00181549  00000+0  13768-2 0  9996
2 63187  42.9998 157.2626 0002528 322.8175  37.2517 15.71026434 72166
STARLINK-11642 [DTC]    
1 63188U 25048F   26155.94784621  .00172939  00000+0  13212-2 0  9996
2 63188  42.9995 154.0185 0001334 255.3610 104.7109 15.70878818 72243
STARLINK-11639 [DTC]    
1 63189U 25048G   26155.93722866  .00153380  00000+0  11753-2 0  9996
2 63189  42.9997 153.9318 0001645 283.6450  76.4234 15.70871857 72243
STARLINK-11637 [DTC]    
1 63190U 25048H   26155.90641887  .00169524  00000+0  12823-2 0  9994
2 63190  42.9998 154.5794 0002873 308.0432  52.0176 15.71124711 72232
STARLINK-11647 [DTC]    
1 63191U 25048J   26153.00005787  .00024414  00000+0  19346-3 0  9993
2 63191  42.9997 171.5600 0001455 263.7631  56.4935 15.70807102  5890
STARLINK-11643 [DTC]    
1 63192U 25048K   26154.16220737  .00246382  00000+0  18671-2 0  9995
2 63192  42.9988 164.7081 0001054 190.5503 169.5343 15.70841404 71961
STARLINK-11635 [DTC]    
1 63193U 25048L   26155.22188176  .00124508  00000+0  95815-3 0  9995
2 63193  42.9976 158.0106 0002346 197.0777 163.0012 15.70868430 72133
STARLINK-11636 [DTC]    
1 63194U 25048M   26155.95315156  .00054079  00000+0  41873-3 0  9996
2 63194  43.0009 154.0601 0002790 232.1394 127.9222 15.71034420 72247
STARLINK-11631 [DTC]    
1 63195U 25048N   26155.91081626  .00061679  00000+0  47868-3 0  9999
2 63195  43.0016 154.6145 0002394 305.1917  54.8726 15.70934319 72238
STARLINK-32946          
1 63196U 25048P   26152.95478584  .00027075  00000+0  98926-3 0  9997
2 63196  43.0037 333.4444 0003082 247.5031 112.5494 15.27595811 69931
STARLINK-32960          
1 63197U 25048Q   26152.79879332  .00035323  00000+0  12863-2 0  9996
2 63197  43.0009 330.4806 0001253 249.3654 110.7063 15.27596676 69953
STARLINK-32904          
1 63198U 25048R   26152.49869577  .00018049  00000+0  66374-3 0  9997
2 63198  42.9985 331.6592 0001173 215.3011 144.7763 15.27583555 69913
STARLINK-32931          
1 63199U 25048S   26154.94241559  .00020699  00000+0  75889-3 0  9999
2 63199  43.0023 318.1928 0002473 332.0647  28.0072 15.27610518 70287
STARLINK-32934          
1 63200U 25048T   26154.33593570  .00038909  00000+0  14144-2 0  9997
2 63200  43.0021 321.3746 0002356 215.6829 144.3866 15.27616171 70194
STARLINK-32938          
1 63201U 25048U   26155.53474096  .00024766  00000+0  90480-3 0  9996
2 63201  43.0036 314.8844 0002560 245.3855 114.6731 15.27639340 70377
STARLINK-32935          
1 63202U 25048V   26153.79115912  .00019814  00000+0  72700-3 0  9995
2 63202  43.0024 325.0321 0001518  13.8199 346.2694 15.27607495 70108
STARLINK-32930          
1 63203U 25048W   26152.80649915  .00027265  00000+0  99613-3 0  9993
2 63203  43.0049 330.5366 0002114 267.8629  92.1980 15.27596610 69950
STARLINK-11654 [DTC]    
1 63265U 25053A   26153.59708604 -.00025609  00000+0 -19647-3 0  9996
2 63265  42.9998 320.3973 0001757 265.5374  94.5293 15.70866185 71023
STARLINK-11659 [DTC]    
1 63266U 25053B   26155.69002431  .00130504  00000+0  10040-2 0  9991
2 63266  42.9989 307.7027 0002128 223.8165 136.2534 15.70854024 71358
STARLINK-11653 [DTC]    
1 63267U 25053C   26154.57207385 -.00081585  00000+0 -63605-3 0  9995
2 63267  42.9994 314.8196 0001639 282.4526  77.6158 15.70932587 71170
STARLINK-11641 [DTC]    
1 63268U 25053D   26155.00002315  .00027006  00000+0  21341-3 0  9998
2 63268  43.0001 311.6435 0001790 280.2863 223.2573 15.70824061  5951
STARLINK-11638 [DTC]    
1 63269U 25053E   26155.48865351  .00214767  00000+0  16280-2 0  9995
2 63269  42.9994 308.7717 0003261 243.2903 116.7631 15.70929362 71325
STARLINK-11614 [DTC]    
1 63270U 25053F   26152.78643980  .00021725  00000+0  17235-3 0  9991
2 63270  43.0012 325.5087 0002326 275.9128  84.1475 15.70840160 70892
STARLINK-11620 [DTC]    
1 63271U 25053G   26154.58269183 -.00136352  00000+0 -10730-2 0  9998
2 63271  42.9983 314.9039 0002180 281.8172  78.2451 15.70916582 71172
STARLINK-11619 [DTC]    
1 63272U 25053H   26155.91672454  .00051085  00000+0  39958-3 0  9997
2 63272  42.9999 306.4950 0001577 268.2266 235.2583 15.70815072  6047
STARLINK-11621 [DTC]    
1 63273U 25053J   26155.73237680  .00202676  00000+0  15445-2 0  9994
2 63273  42.9986 307.1551 0001326 284.2175  75.8545 15.70844551 71365
STARLINK-11615 [DTC]    
1 63274U 25053K   26155.32446472  .00267513  00000+0  19881-2 0  9990
2 63274  42.9991 310.1396 0003333 320.7870  39.2756 15.71239764 71296
STARLINK-11608 [DTC]    
1 63275U 25053L   26155.81188417  .00129737  00000+0  99763-3 0  9990
2 63275  42.9991 306.8998 0001960 293.6441  66.4220 15.70868747 71367
STARLINK-11623 [DTC]    
1 63276U 25053M   26154.57738666  .00124051  00000+0  95530-3 0  9992
2 63276  42.9995 314.8662 0001699 261.3762  98.6913 15.70854330 71163
STARLINK-33660          
1 63278U 25053P   26155.87044133  .00023725  00000+0  86892-3 0  9994
2 63278  43.0022 109.6844 0001801 259.1064 100.9585 15.27579509 69528
STARLINK-33611          
1 63279U 25053Q   26152.37203389  .00017931  00000+0  65938-3 0  9997
2 63279  43.0043 125.5416 0001779 268.5518  91.5130 15.27587844 69146
STARLINK-33646          
1 63280U 25053R   26152.95746090  .00001559  00000+0  66171-4 0  9994
2 63280  42.9988 125.6567 0001373 275.6031  84.4664 15.27575213 69084
STARLINK-33665          
1 63281U 25053S   26154.96258814  .00033559  00000+0  12203-2 0  9990
2 63281  42.9988 114.0437 0002635 243.7713 116.2867 15.27664479 69394
STARLINK-33603          
1 63282U 25053T   26155.35119487  .00019058  00000+0  69916-3 0  9999
2 63282  43.0002 112.6432 0002492 230.4154 129.6477 15.27631445 69444
STARLINK-33669          
1 63283U 25053U   26152.35484263  .00015819  00000+0  58293-3 0  9991
2 63283  43.0013 128.8703 0001731 268.3637  91.7016 15.27591788 68990
STARLINK-33673          
1 63284U 25053V   26152.32111168  .00017386  00000+0  63947-3 0  9993
2 63284  43.0015 121.6784 0001715 260.3181  99.7477 15.27597810 69184
STARLINK-33662          
1 63285U 25053W   26151.98436965  .00011514  00000+0  42725-3 0  9998
2 63285  42.9998 131.2528 0000754 210.3193 149.7615 15.27582481 68936
STARLINK-33613          
1 63286U 25053X   26155.01399240  .00024247  00000+0  88587-3 0  9994
2 63286  42.9993 114.4302 0001888 199.2118 160.8663 15.27649208 69395
STARLINK-33680          
1 63287U 25053Y   26154.19209059  .00033930  00000+0  12347-2 0  9990
2 63287  42.9980 118.5826 0001426 270.6553  89.4135 15.27637315 69322
STARLINK-11568 [DTC]    
1 63307U 25057A   26155.81369897  .00173788  00000+0  13227-2 0  9998
2 63307  42.9996  99.0514 0002188 304.7026  55.3636 15.70965634 70886
STARLINK-11575 [DTC]    
1 63308U 25057B   26155.77665788  .00299882  00000+0  22093-2 0  9997
2 63308  42.9998  99.6456 0003316 240.0180 120.0359 15.71349591 70877
STARLINK-11585 [DTC]    
1 63309U 25057C   26155.76073466  .00261765  00000+0  19477-2 0  9994
2 63309  43.0009  99.5191 0003381 275.6341  84.4141 15.71228433 70900
STARLINK-11587 [DTC]    
1 63310U 25057D   26155.79789551  .00261986  00000+0  19423-2 0  9994
2 63310  42.9994  99.8162 0003298 245.5914 114.4610 15.71314286 70876
STARLINK-11589 [DTC]    
1 63311U 25057E   26155.86678683  .00167649  00000+0  12819-2 0  9999
2 63311  42.9993  99.4730 0001705 267.2634  92.8039 15.70875524 70885
STARLINK-11650 [DTC]    
1 63312U 25057F   26153.94427248  .00159530  00000+0  12252-2 0  9997
2 63312  43.0005 110.8498 0001783 246.3422 113.7258 15.70797762 70614
STARLINK-11648 [DTC]    
1 63313U 25057G   26153.94335762  .00180888  00000+0  13796-2 0  9991
2 63313  42.9998 110.8427 0001715 222.3591 137.7144 15.70893205 70587
STARLINK-11640 [DTC]    
1 63314U 25057H   26155.27330171  .00154018  00000+0  11800-2 0  9999
2 63314  42.9990 102.7474 0002329 221.3209 138.7482 15.70872995 70791
STARLINK-11652 [DTC]    
1 63315U 25057J   26154.88117906  .00163798  00000+0  12528-2 0  9998
2 63315  42.9993 104.9575 0003260 200.1901 159.8838 15.70878856 70768
STARLINK-11645 [DTC]    
1 63316U 25057K   26155.72900316  .00208931  00000+0  15677-2 0  9995
2 63316  43.0007 100.1539 0003558 230.0449 130.0107 15.71189498 70896
STARLINK-11633 [DTC]    
1 63317U 25057L   26154.98180061  .00285557  00000+0  21281-2 0  9997
2 63317  42.9992 103.9818 0003474 233.4411 126.6137 15.71119035 70751
STARLINK-11593 [DTC]    
1 63318U 25057M   26155.88259979  .00188915  00000+0  14068-2 0  9998
2 63318  43.0004  98.7029 0005936 334.5426  25.5149 15.71420060 70929
STARLINK-11588 [DTC]    
1 63319U 25057N   26155.32096634  .00121097  00000+0  92846-3 0  9994
2 63319  43.0010 102.2381 0001013 304.0475  56.0296 15.70970492 70804
STARLINK-33671          
1 63320U 25057P   26153.51727300  .00018728  00000+0  68851-3 0  9991
2 63320  42.9969 261.1520 0001932 271.5719  88.4912 15.27571536 68872
STARLINK-33650          
1 63321U 25057Q   26152.66964303  .00025109  00000+0  91879-3 0  9990
2 63321  43.0060 276.3615 0001571 283.4737  76.5940 15.27581846 68583
STARLINK-33689          
1 63322U 25057R   26152.66193393  .00017262  00000+0  63544-3 0  9993
2 63322  43.0033 276.2952 0001154 258.5839 101.4883 15.27575649 68623
